satname,norad_id,inclination_deg,eccentricity,mean_motion_rev_per_day,perigee_km,apogee_km,l1,l2
STARLINK-1513,45786,53.0556,0.0001361,15.06398553,546.2734522461033,548.1585333307394,1 45786U 20038BJ  26017.42891794 -.00000200  00000+0  54508-5 0  9992,2 45786  53.0556  66.7379 0001361  90.9864 269.1281 15.06398553309030
STARLINK-1522,46027,53.0558,0.0001848,15.06409976,545.9011843405397,548.4607818670947,1 46027U 20055A   26017.34323833 -.00002920  00000+0 -17715-3 0  9994,2 46027  53.0558 357.1170 0001848  98.0073 262.1125 15.06409976301144
STARLINK-1523,46028,53.0554,0.0001407,15.06412995,546.1973394828419,548.146121359583,1 46028U 20055B   26017.22526571  .00002530  00000+0  18859-3 0  9991,2 46028  53.0554 357.6518 0001407  86.1172 273.9978 15.06412995301142
STARLINK-1526,46029,53.0557,0.0001384,15.064152,546.2065107261988,548.1234343121923,1 46029U 20055C   26017.35058434  .00002385  00000+0  17886-3 0  9991,2 46029  53.0557 357.0869 0001384  90.7717 269.3431 15.06415200301155
STARLINK-1555,46032,53.0567,0.0001606,15.06404491,546.085584936428,548.3100024721662,1 46032U 20055F   26017.33585028  .00001330  00000+0  10816-3 0  9992,2 46032  53.0567 357.1522 0001606  94.7289 265.3883 15.06404491301159
STARLINK-1556,46033,53.0556,0.0001504,15.06414467,546.1256532672141,548.2087847762969,1 46033U 20055G   26017.31741032  .00002052  00000+0  15653-3 0  9996,2 46033  53.0556 357.2362 0001504  91.0526 269.0635 15.06414467301129
STARLINK-1557,46034,53.0563,0.0001367,15.06403025,546.2555928839711,548.1489806449736,1 46034U 20055H   26017.32110593  .00001335  00000+0  10847-3 0  9993,2 46034  53.0563 357.2195 0001367  87.6545 272.4600 15.06403025301129
STARLINK-1558,46035,53.0554,0.000149,15.06426955,546.0970813514159,548.1608106033163,1 46035U 20055J   26017.32848221  .00006140  00000+0  43042-3 0  9992,2 46035  53.0554 357.1882 0001490  88.8496 271.2664 15.06426955301154
STARLINK-1560,46036,53.0552,0.0001867,15.06386614,545.9596141687362,548.5455546395533,1 46036U 20055K   26017.64548252 -.00001766  00000+0 -99725-4 0  9990,2 46036  53.0552 355.7652 0001867  82.3593 277.7608 15.06386614301209
STARLINK-1567,46038,53.0558,0.0001479,15.06399094,546.1900752367801,548.238594161583,1 46038U 20055M   26017.32479656  .00000142  00000+0  28440-4 0  9999,2 46038  53.0558 357.2027 0001479  96.3607 263.7550 15.06399094301140
STARLINK-1569,46039,53.0561,0.0001376,15.0641139,546.2237262905292,548.1295726068565,1 46039U 20055N   26017.33215423  .00001588  00000+0  12542-3 0  9991,2 46039  53.0561 357.1690 0001376  95.5587 264.5559 15.06411390301146
STARLINK-1582,46043,53.0551,0.0001182,15.0640272,546.3846463283871,548.0217967567596,1 46043U 20055S   26017.33954926  .00003363  00000+0  24456-3 0  9994,2 46043  53.0551 357.1367 0001182  88.6488 271.4636 15.06402720301149
STARLINK-1591,46045,53.0552,0.0001348,15.06411572,546.2425594472361,548.1096238567461,1 46045U 20055U   26017.23263985  .00000827  00000+0  74376-4 0  9992,2 46045  53.0552 357.6167 0001348  88.3100 271.8043 15.06411572301115
STARLINK-1524,46047,53.0552,0.0001441,15.06423942,546.1402479749595,548.1361122818726,1 46047U 20055W   26017.31833405  .00006172  00000+0  43259-3 0  9997,2 46047  53.0552 347.2323 0001441  87.2347 272.8807 15.06423942301282
STARLINK-1527,46048,53.0559,0.0001562,15.06407486,546.1068786604847,548.2703503824605,1 46048U 20055X   26017.18195845  .00002289  00000+0  17251-3 0  9990,2 46048  53.0559 347.8447 0001562  86.9864 273.1304 15.06407486301244
STARLINK-1540,46051,53.0553,0.0001447,15.06417793,546.1549354472136,548.1591155381911,1 46051U 20055AA  26017.34782054  .00004446  00000+0  31703-3 0  9991,2 46051  53.0553 347.0997 0001447  85.9631 274.1524 15.06417793301301
STARLINK-1541,46052,53.0558,0.00017,15.0640465,546.0199995625726,548.374613226747,1 46052U 20055AB  26017.33309036  .00011724  00000+0  80454-3 0  9990,2 46052  53.0558 347.1658 0001700 102.8395 257.2784 15.06404650301263
STARLINK-1543,46053,53.0557,0.0001339,15.06413847,546.2418207133351,548.0964176920579,1 46053U 20055AC  26017.20406213  .00002230  00000+0  16846-3 0  9998,2 46053  53.0557 347.7455 0001339  86.4937 273.6205 15.06413847301270
STARLINK-1548,46054,53.0559,0.0001441,15.06405432,546.1969693624696,548.1928500188415,1 46054U 20055AD  26017.27779650 -.00000124  00000+0  10561-4 0  9994,2 46054  53.0559 347.4147 0001441  86.0317 274.0837 15.06405432301288
STARLINK-1554,46055,53.0539,0.0001291,15.06418425,546.2610333339035,548.0491437511655,1 46055U 20055AE  26017.32939761  .00004242  00000+0  30337-3 0  9998,2 46055  53.0539 347.1829 0001291  85.5288 274.5848 15.06418425301299
STARLINK-1564,46058,53.0578,0.0001626,15.06392151,546.1095485102151,548.3616796843189,1 46058U 20055AH  26017.20782972 -.00001134  00000+0 -57220-4 0  9998,2 46058  53.0578 348.1939 0001626  95.0420 265.0755 15.06392151301260
STARLINK-1570,46059,53.0551,0.000167,15.06395799,546.0678980687626,548.3809687875273,1 46059U 20055AJ  26017.63533552 -.00000186  00000+0  64142-5 0  9991,2 46059  53.0551 345.8117 0001670  85.5869 274.5311 15.06395799301291
STARLINK-1572,46060,53.0574,0.0002061,15.0642555,545.7059537760069,548.5605501738701,1 46060U 20055AK  26017.16719431  .00003014  00000+0  22099-3 0  9998,2 46060  53.0574 347.9117 0002061  92.1622 267.9604 15.06425550301231
STARLINK-1573,46061,53.0556,0.0001597,15.06407226,546.0834367496436,548.2953860054376,1 46061U 20055AL  26017.29623260  .00001280  00000+0  10480-3 0  9991,2 46061  53.0556 347.3680 0001597  88.0734 272.0438 15.06407226301289
STARLINK-1577,46063,53.0555,0.0001484,15.06419554,546.1239155603844,548.1793412252928,1 46063U 20055AN  26017.32201386  .00003726  00000+0  26879-3 0  9994,2 46063  53.0555 347.2154 0001484  80.3132 279.8025 15.06419554301281
STARLINK-1583,46064,53.0558,0.0001577,15.06406681,546.09895747271,548.2832059496814,1 46064U 20055AP  26017.35520036  .00001561  00000+0  12363-3 0  9992,2 46064  53.0558 347.0669 0001577  84.7642 275.3527 15.06406681301297
STARLINK-1525,46066,53.0574,0.0001547,15.06397358,546.1483026250189,548.2910079741687,1 46066U 20055AR  26017.55240501 -.00000566  00000+0 -19110-4 0  9996,2 46066  53.0574 326.1831 0001547  93.3866 266.7300 15.06397358301593
STARLINK-1536,46070,53.0557,0.000147,15.06416205,546.1438734552712,548.1799113296338,1 46070U 20055AV  26017.26488950  .00002493  00000+0  18614-3 0  9997,2 46070  53.0557 327.4718 0001470  89.2195 270.8962 15.06416205301561
